[{"OBJECT_NAME":"STARLINK-32682","OBJECT_ID":"2024-229E","EPOCH":"2026-03-09T11:44:02.343264","MEAN_MOTION":15.27589471,"ECCENTRICITY":0.00012062,"INCLINATION":42.9945,"RA_OF_ASC_NODE":239.1712,"ARG_OF_PERICENTER":206.4951,"MEAN_ANOMALY":153.584,"EPHEMERIS_TYPE":0,"CLASSIFICATION_TYPE":"U","NORAD_CAT_ID":62196,"ELEMENT_SET_NO":999,"REV_AT_EPOCH":7090,"BSTAR":0.0011135019,"MEAN_MOTION_DOT":0.00030515,"MEAN_MOTION_DDOT":0},{"OBJECT_NAME":"TITAN 3C TRANSTAGE DEB","OBJECT_ID":"1965-082PT","EPOCH":"2026-03-09T13:23:41.116128","MEAN_MOTION":15.28908269,"ECCENTRICITY":0.00104371,"INCLINATION":32.0266,"RA_OF_ASC_NODE":255.1391,"ARG_OF_PERICENTER":172.8339,"MEAN_ANOMALY":187.2474,"EPHEMERIS_TYPE":0,"CLASSIFICATION_TYPE":"U","NORAD_CAT_ID":3462,"ELEMENT_SET_NO":999,"REV_AT_EPOCH":24824,"BSTAR":0.0004444037,"MEAN_MOTION_DOT":0.00012939,"MEAN_MOTION_DDOT":0}]
